ONEWEB-0665             
1 55825U 23029AF  25243.22572827  .00000016  00000+0  80727-5 0  9997
2 55825  87.9096 347.4510 0001695  91.6095 268.5229 13.14502413121317
ONEWEB-0666             
1 55826U 23029AG  25243.18815037  .00000078  00000+0  16031-3 0  9999
2 55826  87.9295 332.2919 0002214 118.7800 241.3556 13.20771120122871
ONEWEB-0667             
1 55827U 23029AH  25243.18182894  .00000108  00000+0  23438-3 0  9991
2 55827  87.9292 332.2207 0001846  92.7278 267.4066 13.20769778122869
ONEWEB-0669             
1 55828U 23029AJ  25243.25285910  .00000066  00000+0  13051-3 0  9996
2 55828  87.9297 332.2458 0002584 100.3703 259.7722 13.20773209122870
ONEWEB-0670             
1 55829U 23029AK  25243.20353448  .00000319  00000+0  82722-3 0  9996
2 55829  87.9098 347.4757 0001986  87.8776 272.2581 13.14502523121339
ONEWEB-0671             
1 55830U 23029AL  25243.29171822  .00000133  00000+0  30085-3 0  9990
2 55830  87.9272   2.6207 0001806  92.5159 267.6180 13.19727080120664
ONEWEB-0672             
1 55831U 23029AM  25243.24812996  .00000088  00000+0  18457-3 0  9998
2 55831  87.9289 332.2309 0002060 105.9452 254.1908 13.20772161122872
ONEWEB-0673             
1 55832U 23029AN  25243.26801456  .00000062  00000+0  12269-3 0  9997
2 55832  87.9282   2.5906 0001593  96.9476 263.1838 13.19723967120666
ONEWEB-0674             
1 55833U 23029AP  25243.24793651 -.00000140  00000+0 -41301-3 0  9991
2 55833  87.9094 347.4503 0002139  88.1573 271.9801 13.14504394121327
ONEWEB-0675             
1 55834U 23029AQ  25243.28380834 -.00000014  00000+0 -66244-4 0  9995
2 55834  87.9275   2.6329 0001704 109.0701 251.0617 13.19726731120686
ONEWEB-0720             
1 55835U 23029AR  25243.27592864  .00000125  00000+0  28076-3 0  9994
2 55835  87.9270   2.6312 0001515  87.9917 272.1389 13.19726558120606
ONEWEB-0537             
1 56046U 23043A   25243.11420586  .00000144  00000+0  34195-3 0  9999
2 56046  87.9008 286.5813 0001918 100.6704 259.4643 13.16595488120797
ONEWEB-0538             
1 56047U 23043B   25243.18386911  .00000144  00000+0  34304-3 0  9992
2 56047  87.8999 286.5806 0001662  99.0684 261.0635 13.16593995120816
ONEWEB-0546             
1 56048U 23043C   25243.17120124  .00000045  00000+0  83697-4 0  9994
2 56048  87.9011 286.5638 0002307 110.9581 249.1797 13.16593394120800
ONEWEB-0547             
1 56049U 23043D   25243.18082785  .00000030  00000+0  41703-4 0  9992
2 56049  87.9228 301.8454 0001774  94.9327 265.2010 13.21824191119919
ONEWEB-0548             
1 56050U 23043E   25243.19654750  .00000061  00000+0  12707-3 0  9997
2 56050  87.8995 286.5843 0002323  85.7438 274.3959 13.16595013120809
ONEWEB-0549             
1 56051U 23043F   25243.17217469  .00000017  00000+0  91828-5 0  9992
2 56051  87.9231 301.8620 0001636  96.5000 263.6320 13.21826484119917
