[{"OBJECT_NAME":"ONEWEB-0665","OBJECT_ID":"2023-029AF","EPOCH":"2025-08-31T05:25:02.922528","MEAN_MOTION":13.14502413,"ECCENTRICITY":0.00016955,"INCLINATION":87.9096,"RA_OF_ASC_NODE":347.451,"ARG_OF_PERICENTER":91.6095,"MEAN_ANOMALY":268.5229,"EPHEMERIS_TYPE":0,"CLASSIFICATION_TYPE":"U","NORAD_CAT_ID":55825,"ELEMENT_SET_NO":999,"REV_AT_EPOCH":12131,"BSTAR":8.072663e-6,"MEAN_MOTION_DOT":1.6e-7,"MEAN_MOTION_DDOT":0},{"OBJECT_NAME":"ONEWEB-0666","OBJECT_ID":"2023-029AG","EPOCH":"2025-08-31T04:30:56.191968","MEAN_MOTION":13.2077112,"ECCENTRICITY":0.00022141,"INCLINATION":87.9295,"RA_OF_ASC_NODE":332.2919,"ARG_OF_PERICENTER":118.78,"MEAN_ANOMALY":241.3556,"EPHEMERIS_TYPE":0,"CLASSIFICATION_TYPE":"U","NORAD_CAT_ID":55826,"ELEMENT_SET_NO":999,"REV_AT_EPOCH":12287,"BSTAR":0.00016031389,"MEAN_MOTION_DOT":7.8e-7,"MEAN_MOTION_DDOT":0},{"OBJECT_NAME":"ONEWEB-0667","OBJECT_ID":"2023-029AH","EPOCH":"2025-08-31T04:21:50.020416","MEAN_MOTION":13.20769778,"ECCENTRICITY":0.00018468,"INCLINATION":87.9292,"RA_OF_ASC_NODE":332.2207,"ARG_OF_PERICENTER":92.7278,"MEAN_ANOMALY":267.4066,"EPHEMERIS_TYPE":0,"CLASSIFICATION_TYPE":"U","NORAD_CAT_ID":55827,"ELEMENT_SET_NO":999,"REV_AT_EPOCH":12286,"BSTAR":0.00023438297,"MEAN_MOTION_DOT":1.08e-6,"MEAN_MOTION_DDOT":0},{"OBJECT_NAME":"ONEWEB-0669","OBJECT_ID":"2023-029AJ","EPOCH":"2025-08-31T06:04:07.026240","MEAN_MOTION":13.20773209,"ECCENTRICITY":0.00025847,"INCLINATION":87.9297,"RA_OF_ASC_NODE":332.2458,"ARG_OF_PERICENTER":100.3703,"MEAN_ANOMALY":259.7722,"EPHEMERIS_TYPE":0,"CLASSIFICATION_TYPE":"U","NORAD_CAT_ID":55828,"ELEMENT_SET_NO":999,"REV_AT_EPOCH":12287,"BSTAR":0.00013050591,"MEAN_MOTION_DOT":6.6e-7,"MEAN_MOTION_DDOT":0},{"OBJECT_NAME":"ONEWEB-0670","OBJECT_ID":"2023-029AK","EPOCH":"2025-08-31T04:53:05.379072","MEAN_MOTION":13.14502523,"ECCENTRICITY":0.00019864,"INCLINATION":87.9098,"RA_OF_ASC_NODE":347.4757,"ARG_OF_PERICENTER":87.8776,"MEAN_ANOMALY":272.2581,"EPHEMERIS_TYPE":0,"CLASSIFICATION_TYPE":"U","NORAD_CAT_ID":55829,"ELEMENT_SET_NO":999,"REV_AT_EPOCH":12133,"BSTAR":0.0008272234,"MEAN_MOTION_DOT":3.19e-6,"MEAN_MOTION_DDOT":0},{"OBJECT_NAME":"ONEWEB-0671","OBJECT_ID":"2023-029AL","EPOCH":"2025-08-31T07:00:04.454208","MEAN_MOTION":13.1972708,"ECCENTRICITY":0.00018068,"INCLINATION":87.9272,"RA_OF_ASC_NODE":2.6207,"ARG_OF_PERICENTER":92.5159,"MEAN_ANOMALY":267.618,"EPHEMERIS_TYPE":0,"CLASSIFICATION_TYPE":"U","NORAD_CAT_ID":55830,"ELEMENT_SET_NO":999,"REV_AT_EPOCH":12066,"BSTAR":0.00030085435,"MEAN_MOTION_DOT":1.33e-6,"MEAN_MOTION_DDOT":0},{"OBJECT_NAME":"ONEWEB-0672","OBJECT_ID":"2023-029AM","EPOCH":"2025-08-31T05:57:18.428544","MEAN_MOTION":13.20772161,"ECCENTRICITY":0.00020608,"INCLINATION":87.9289,"RA_OF_ASC_NODE":332.2309,"ARG_OF_PERICENTER":105.9452,"MEAN_ANOMALY":254.1908,"EPHEMERIS_TYPE":0,"CLASSIFICATION_TYPE":"U","NORAD_CAT_ID":55831,"ELEMENT_SET_NO":999,"REV_AT_EPOCH":12287,"BSTAR":0.00018456979,"MEAN_MOTION_DOT":8.8e-7,"MEAN_MOTION_DDOT":0},{"OBJECT_NAME":"ONEWEB-0673","OBJECT_ID":"2023-029AN","EPOCH":"2025-08-31T06:25:56.457984","MEAN_MOTION":13.19723967,"ECCENTRICITY":0.00015935,"INCLINATION":87.9282,"RA_OF_ASC_NODE":2.5906,"ARG_OF_PERICENTER":96.9476,"MEAN_ANOMALY":263.1838,"EPHEMERIS_TYPE":0,"CLASSIFICATION_TYPE":"U","NORAD_CAT_ID":55832,"ELEMENT_SET_NO":999,"REV_AT_EPOCH":12066,"BSTAR":0.00012269239,"MEAN_MOTION_DOT":6.2e-7,"MEAN_MOTION_DDOT":0},{"OBJECT_NAME":"ONEWEB-0674","OBJECT_ID":"2023-029AP","EPOCH":"2025-08-31T05:57:01.714464","MEAN_MOTION":13.14504394,"ECCENTRICITY":0.00021398,"INCLINATION":87.9094,"RA_OF_ASC_NODE":347.4503,"ARG_OF_PERICENTER":88.1573,"MEAN_ANOMALY":271.9801,"EPHEMERIS_TYPE":0,"CLASSIFICATION_TYPE":"U","NORAD_CAT_ID":55833,"ELEMENT_SET_NO":999,"REV_AT_EPOCH":12132,"BSTAR":-0.0004130131,"MEAN_MOTION_DOT":-1.4e-6,"MEAN_MOTION_DDOT":0},{"OBJECT_NAME":"ONEWEB-0675","OBJECT_ID":"2023-029AQ","EPOCH":"2025-08-31T06:48:41.040576","MEAN_MOTION":13.19726731,"ECCENTRICITY":0.00017044,"INCLINATION":87.9275,"RA_OF_ASC_NODE":2.6329,"ARG_OF_PERICENTER":109.0701,"MEAN_ANOMALY":251.0617,"EPHEMERIS_TYPE":0,"CLASSIFICATION_TYPE":"U","NORAD_CAT_ID":55834,"ELEMENT_SET_NO":999,"REV_AT_EPOCH":12068,"BSTAR":-6.6244056e-5,"MEAN_MOTION_DOT":-1.4e-7,"MEAN_MOTION_DDOT":0},{"OBJECT_NAME":"ONEWEB-0720","OBJECT_ID":"2023-029AR","EPOCH":"2025-08-31T06:37:20.234496","MEAN_MOTION":13.19726558,"ECCENTRICITY":0.00015153,"INCLINATION":87.927,"RA_OF_ASC_NODE":2.6312,"ARG_OF_PERICENTER":87.9917,"MEAN_ANOMALY":272.1389,"EPHEMERIS_TYPE":0,"CLASSIFICATION_TYPE":"U","NORAD_CAT_ID":55835,"ELEMENT_SET_NO":999,"REV_AT_EPOCH":12060,"BSTAR":0.00028076489,"MEAN_MOTION_DOT":1.25e-6,"MEAN_MOTION_DDOT":0},{"OBJECT_NAME":"ONEWEB-0537","OBJECT_ID":"2023-043A","EPOCH":"2025-08-31T02:44:27.386304","MEAN_MOTION":13.16595488,"ECCENTRICITY":0.00019185,"INCLINATION":87.9008,"RA_OF_ASC_NODE":286.5813,"ARG_OF_PERICENTER":100.6704,"MEAN_ANOMALY":259.4643,"EPHEMERIS_TYPE":0,"CLASSIFICATION_TYPE":"U","NORAD_CAT_ID":56046,"ELEMENT_SET_NO":999,"REV_AT_EPOCH":12079,"BSTAR":0.00034195,"MEAN_MOTION_DOT":1.44e-6,"MEAN_MOTION_DDOT":0},{"OBJECT_NAME":"ONEWEB-0538","OBJECT_ID":"2023-043B","EPOCH":"2025-08-31T04:24:46.291104","MEAN_MOTION":13.16593995,"ECCENTRICITY":0.00016627,"INCLINATION":87.8999,"RA_OF_ASC_NODE":286.5806,"ARG_OF_PERICENTER":99.0684,"MEAN_ANOMALY":261.0635,"EPHEMERIS_TYPE":0,"CLASSIFICATION_TYPE":"U","NORAD_CAT_ID":56047,"ELEMENT_SET_NO":999,"REV_AT_EPOCH":12081,"BSTAR":0.00034303719,"MEAN_MOTION_DOT":1.44e-6,"MEAN_MOTION_DDOT":0},{"OBJECT_NAME":"ONEWEB-0546","OBJECT_ID":"2023-043C","EPOCH":"2025-08-31T04:06:31.787136","MEAN_MOTION":13.16593394,"ECCENTRICITY":0.00023073,"INCLINATION":87.9011,"RA_OF_ASC_NODE":286.5638,"ARG_OF_PERICENTER":110.9581,"MEAN_ANOMALY":249.1797,"EPHEMERIS_TYPE":0,"CLASSIFICATION_TYPE":"U","NORAD_CAT_ID":56048,"ELEMENT_SET_NO":999,"REV_AT_EPOCH":12080,"BSTAR":8.3696731e-5,"MEAN_MOTION_DOT":4.5e-7,"MEAN_MOTION_DDOT":0},{"OBJECT_NAME":"ONEWEB-0547","OBJECT_ID":"2023-043D","EPOCH":"2025-08-31T04:20:23.526240","MEAN_MOTION":13.21824191,"ECCENTRICITY":0.00017749,"INCLINATION":87.9228,"RA_OF_ASC_NODE":301.8454,"ARG_OF_PERICENTER":94.9327,"MEAN_ANOMALY":265.201,"EPHEMERIS_TYPE":0,"CLASSIFICATION_TYPE":"U","NORAD_CAT_ID":56049,"ELEMENT_SET_NO":999,"REV_AT_EPOCH":11991,"BSTAR":4.1703109e-5,"MEAN_MOTION_DOT":3.0e-7,"MEAN_MOTION_DDOT":0},{"OBJECT_NAME":"ONEWEB-0548","OBJECT_ID":"2023-043E","EPOCH":"2025-08-31T04:43:01.704000","MEAN_MOTION":13.16595013,"ECCENTRICITY":0.00023239,"INCLINATION":87.8995,"RA_OF_ASC_NODE":286.5843,"ARG_OF_PERICENTER":85.7438,"MEAN_ANOMALY":274.3959,"EPHEMERIS_TYPE":0,"CLASSIFICATION_TYPE":"U","NORAD_CAT_ID":56050,"ELEMENT_SET_NO":999,"REV_AT_EPOCH":12080,"BSTAR":0.00012706809,"MEAN_MOTION_DOT":6.1e-7,"MEAN_MOTION_DDOT":0},{"OBJECT_NAME":"ONEWEB-0549","OBJECT_ID":"2023-043F","EPOCH":"2025-08-31T04:07:55.893216","MEAN_MOTION":13.21826484,"ECCENTRICITY":0.00016368,"INCLINATION":87.9231,"RA_OF_ASC_NODE":301.862,"ARG_OF_PERICENTER":96.5,"MEAN_ANOMALY":263.632,"EPHEMERIS_TYPE":0,"CLASSIFICATION_TYPE":"U","NORAD_CAT_ID":56051,"ELEMENT_SET_NO":999,"REV_AT_EPOCH":11991,"BSTAR":9.182784e-6,"MEAN_MOTION_DOT":1.7e-7,"MEAN_MOTION_DDOT":0}]
